[{"OBJECT_NAME":"ONEWEB-0248","OBJECT_ID":"2021-045AH","EPOCH":"2026-03-09T15:06:26.476704","MEAN_MOTION":13.15550285,"ECCENTRICITY":0.0002034,"INCLINATION":87.8946,"RA_OF_ASC_NODE":279.0622,"ARG_OF_PERICENTER":99.2247,"MEAN_ANOMALY":260.9114,"EPHEMERIS_TYPE":0,"CLASSIFICATION_TYPE":"U","NORAD_CAT_ID":48798,"ELEMENT_SET_NO":999,"REV_AT_EPOCH":23132,"BSTAR":4.9805e-5,"MEAN_MOTION_DOT":3.2e-7,"MEAN_MOTION_DDOT":0},{"OBJECT_NAME":"COSMOS 249 DEB","OBJECT_ID":"1968-091DH","EPOCH":"2026-03-08T22:08:16.528992","MEAN_MOTION":13.42836717,"ECCENTRICITY":0.07285142,"INCLINATION":62.844,"RA_OF_ASC_NODE":186.5027,"ARG_OF_PERICENTER":204.8122,"MEAN_ANOMALY":151.6172,"EPHEMERIS_TYPE":0,"CLASSIFICATION_TYPE":"U","NORAD_CAT_ID":19317,"ELEMENT_SET_NO":999,"REV_AT_EPOCH":83390,"BSTAR":0.00069278588,"MEAN_MOTION_DOT":1.907e-5,"MEAN_MOTION_DDOT":0}]
